OBJECT_NAME,OBJECT_ID,EPOCH,MEAN_MOTION,ECCENTRICITY,INCLINATION,RA_OF_ASC_NODE,ARG_OF_PERICENTER,MEAN_ANOMALY,EPHEMERIS_TYPE,CLASSIFICATION_TYPE,NORAD_CAT_ID,ELEMENT_SET_NO,REV_AT_EPOCH,BSTAR,MEAN_MOTION_DOT,MEAN_MOTION_DDOT
ICEYE-X6,2020-068M,2026-07-15T20:30:35.757792,15.04669189,.0007175,98.0990,191.9006,8.6776,351.4571,0,U,46497,999,31754,.10941E-3,.1471E-4,0
NETSAT-4,2020-068U,2026-07-15T18:20:11.805792,15.44769251,.0004833,97.8600,207.3212,191.3193,168.7946,0,U,46504,999,32018,.24657E-3,.11442E-3,0
NETSAT-3,2020-068V,2026-07-14T22:46:43.328640,15.43602426,.00037661,97.8649,204.6225,212.3316,147.7700,0,U,46505,999,31996,.23831624E-3,.10624E-3,0
NETSAT-1,2020-068W,2026-07-15T19:39:16.790976,15.35253566,.0002492,97.8751,199.5489,258.0538,102.0424,0,U,46506,999,31969,.20064E-3,.6778E-4,0
NETSAT-2,2020-068X,2026-07-15T10:31:39.037728,15.47169932,.000217,97.8610,206.9725,207.0405,153.0731,0,U,46507,999,32010,.28095025E-3,.14174E-3,0
TIANQI-6,2020-076D,2026-07-15T18:03:42.943968,15.07354376,.0009624,34.9979,233.1260,60.0968,300.0697,0,U,46810,999,31289,.10024E-3,.1517E-4,0
KSM1-C,2020-081B,2026-07-15T14:29:16.179936,15.27179937,.0001298,36.8944,243.4509,109.1413,250.9477,0,U,46906,999,31351,.15604E-3,.4158E-4,0
KSM1-D,2020-081C,2026-07-15T13:52:33.788640,15.25102573,.0002817,36.8960,253.1730,147.9010,212.1911,0,U,46907,999,31343,.14632E-3,.3651E-4,0
KSM1-A,2020-081H,2026-07-15T13:21:00.400896,15.26375362,.0003304,36.8953,246.3550,205.5607,154.4979,0,U,46912,999,31351,.15136E-3,.3932E-4,0
R2,2020-081J,2026-07-15T07:49:28.280928,15.25820824,.00078496,36.8967,247.9052,169.0997,190.9924,0,U,46913,999,31628,.14790963E-3,.3777E-4,0
KSM1-B,2020-081K,2026-07-15T14:03:17.568000,15.24886271,.0004826,36.9009,253.8012,167.9170,192.1695,0,U,46914,999,31652,.14887E-3,.3692E-4,0
GONETS-M 20,2020-091A,2026-07-15T19:46:23.008224,12.42894485,.0022156,82.5056,284.6362,117.5980,242.7353,0,U,47227,999,25463,.50517E-3,.8E-6,0
GONETS-M 21,2020-091B,2026-07-15T19:08:57.264000,12.42887482,.0015905,82.4980,283.3419,130.6651,229.5814,0,U,47228,999,25462,.4634E-3,.74E-6,0
GONETS-M 22,2020-091C,2026-07-15T20:25:56.882784,12.42893263,.0023023,82.5038,284.2205,113.0971,247.2539,0,U,47229,999,25458,-.38885E-3,-.44E-6,0
CUBEL,2021-006AM,2026-07-15T03:16:57.051552,15.41999109,.00078706,97.2316,246.4702,82.4658,277.7483,0,U,47448,999,30406,.15774E-3,.6644E-4,0
ARKTIKA-M 1,2021-016A,2026-07-14T09:46:38.558208,2.00611590,.7297332,63.2662,53.6722,270.0591,14.4994,0,U,47719,999,3933,0,-.301E-5,0
STARLINK-2342,2021-021Z,2026-07-15T22:00:01.998720,15.93342510,.0009141,53.1507,2.8385,294.7754,170.8709,0,U,47883,999,606,.89275E-3,.323444E-2,.51331E-4
GRUS-1B,2021-022C,2026-07-15T19:38:05.424576,14.98776346,.0014458,97.5340,79.0610,215.1263,144.9008,0,U,47934,999,29018,.80147E-4,.91E-5,0
UNISAT-7,2021-022P,2026-07-15T05:08:28.096512,15.41197829,.0007824,97.3863,101.4417,348.0399,12.0660,0,U,47945,999,29417,.20076515E-3,.8254E-4,0
GLOBAL-9,2021-023G,2026-07-15T19:00:27.440064,15.47626377,.0003486,44.9815,89.6197,173.5025,186.5912,0,U,47971,999,29937,.23403E-3,.12001E-3,0
AII-BRAVO,2021-034C,2026-07-15T02:31:41.081376,15.03668473,.00062806,97.5597,250.3798,161.9417,198.2033,0,U,48270,999,28381,.21718656E-3,.2915E-4,0
TYVAK-182A,2021-034D,2026-07-15T03:56:44.399328,15.06405855,.00048381,97.5715,254.5981,220.4475,139.6394,0,U,48271,999,28404,.17238127E-3,.2479E-4,0
CSS (TIANHE),2021-035A,2026-07-15T12:51:01.431072,15.58093729,.0002229,41.4690,149.7716,300.3824,59.6794,0,U,48274,999,29759,.20014E-4,.1219E-4,0
TYVAK-0130,2021-041BF,2026-07-15T10:28:54.687648,15.27939674,.00085072,52.9942,254.8555,259.6068,100.3971,0,U,48606,999,28470,.16349959E-3,.417E-4,0
HAIYANG-2D,2021-043A,2026-07-15T20:22:29.463168,13.83373868,.0011596,65.9969,233.3426,265.7646,94.2097,0,U,48621,999,26051,.72275E-4,-.2E-7,0
2021-050D,2021-050D,2026-07-15T20:11:46.940928,15.23594981,.0006361,97.3329,272.2279,149.7102,210.4504,0,U,48843,999,28332,.54036E-4,.1224E-4,0
TYVAK-0173,2021-059P,2026-07-15T14:59:26.760192,14.81972378,.0007233,96.0074,265.9124,298.1600,61.8887,0,U,48892,999,27245,.10654E-3,.813E-5,0
MANDRAKE 2 ABLE,2021-059AE,2026-07-15T19:11:47.929056,15.56088334,.0003831,97.7021,28.7901,231.8602,128.2307,0,U,48907,999,28157,.19955E-3,.13821E-3,0
MANDRAKE 2 BAKER,2021-059AF,2026-07-15T20:05:16.260864,15.60993792,.0002748,97.6985,31.9081,215.5627,144.5446,0,U,48908,999,28176,.22978E-3,.19176E-3,0
