ICEYE-X6                
1 46497U 20068M   26196.85458053  .00001471  00000+0  10941-3 0  9998
2 46497  98.0990 191.9006 0007175   8.6776 351.4571 15.04669189317542
NETSAT-4                
1 46504U 20068U   26196.76402553  .00011442  00000+0  24657-3 0  9999
2 46504  97.8600 207.3212 0004833 191.3193 168.7946 15.44769251320182
NETSAT-3                
1 46505U 20068V   26195.94911260  .00010624  00000+0  23832-3 0  9994
2 46505  97.8649 204.6225 0003766 212.3316 147.7700 15.43602426319963
NETSAT-1                
1 46506U 20068W   26196.81894434  .00006778  00000+0  20064-3 0  9994
2 46506  97.8751 199.5489 0002492 258.0538 102.0424 15.35253566319695
NETSAT-2                
1 46507U 20068X   26196.43864627  .00014174  00000+0  28095-3 0  9995
2 46507  97.8610 206.9725 0002170 207.0405 153.0731 15.47169932320107
TIANQI-6                
1 46810U 20076D   26196.75258037  .00001517  00000+0  10024-3 0  9998
2 46810  34.9979 233.1260 0009624  60.0968 300.0697 15.07354376312898
KSM1-C                  
1 46906U 20081B   26196.60365949  .00004158  00000+0  15604-3 0  9998
2 46906  36.8944 243.4509 0001298 109.1413 250.9477 15.27179937313515
KSM1-D                  
1 46907U 20081C   26196.57816885  .00003651  00000+0  14632-3 0  9992
2 46907  36.8960 253.1730 0002817 147.9010 212.1911 15.25102573313433
KSM1-A                  
1 46912U 20081H   26196.55625464  .00003932  00000+0  15136-3 0  9999
2 46912  36.8953 246.3550 0003304 205.5607 154.4979 15.26375362313510
R2                      
1 46913U 20081J   26196.32602177  .00003777  00000+0  14791-3 0  9994
2 46913  36.8967 247.9052 0007849 169.0997 190.9924 15.25820824316283
KSM1-B                  
1 46914U 20081K   26196.58562000  .00003692  00000+0  14887-3 0  9995
2 46914  36.9009 253.8012 0004826 167.9170 192.1695 15.24886271316529
GONETS-M 20             
1 47227U 20091A   26196.82387741  .00000080  00000+0  50517-3 0  9996
2 47227  82.5056 284.6362 0022156 117.5980 242.7353 12.42894485254631
GONETS-M 21             
1 47228U 20091B   26196.79788500  .00000074  00000+0  46340-3 0  9993
2 47228  82.4980 283.3419 0015905 130.6651 229.5814 12.42887482254624
GONETS-M 22             
1 47229U 20091C   26196.85135281 -.00000044  00000+0 -38885-3 0  9997
2 47229  82.5038 284.2205 0023023 113.0971 247.2539 12.42893263254583
CUBEL                   
1 47448U 21006AM  26196.13677143  .00006644  00000+0  15774-3 0  9998
2 47448  97.2316 246.4702 0007870  82.4658 277.7483 15.41999109304066
ARKTIKA-M 1             
1 47719U 21016A   26195.40739072 -.00000301  00000+0  00000+0 0  9996
2 47719  63.2662  53.6722 7297332 270.0591  14.4994  2.00611590 39330
STARLINK-2342           
1 47883U 21021Z   26196.91668980  .00323444  51331-4  89275-3 0  9998
2 47883  53.1507   2.8385 0009141 294.7754 170.8709 15.93342510  6069
GRUS-1B                 
1 47934U 21022C   26196.81811834  .00000910  00000+0  80147-4 0  9995
2 47934  97.5340  79.0610 0014458 215.1263 144.9008 14.98776346290183
UNISAT-7                
1 47945U 21022P   26196.21421408  .00008254  00000+0  20077-3 0  9999
2 47945  97.3863 101.4417 0007824 348.0399  12.0660 15.41197829294177
GLOBAL-9                
1 47971U 21023G   26196.79198426  .00012001  00000+0  23403-3 0  9994
2 47971  44.9815  89.6197 0003486 173.5025 186.5912 15.47626377299375
AII-BRAVO               
1 48270U 21034C   26196.10533659  .00002915  00000+0  21719-3 0  9996
2 48270  97.5597 250.3798 0006280 161.9417 198.2033 15.03668473283815
TYVAK-182A              
1 48271U 21034D   26196.16440277  .00002479  00000+0  17238-3 0  9992
2 48271  97.5715 254.5981 0004838 220.4475 139.6394 15.06405855284041
CSS (TIANHE)            
1 48274U 21035A   26196.53543323  .00001219  00000+0  20014-4 0  9991
2 48274  41.4690 149.7716 0002229 300.3824  59.6794 15.58093729297592
TYVAK-0130              
1 48606U 21041BF  26196.43674407  .00004170  00000+0  16350-3 0  9990
2 48606  52.9942 254.8555 0008507 259.6068 100.3971 15.27939674284702
HAIYANG-2D              
1 48621U 21043A   26196.84895212 -.00000002  00000+0  72275-4 0  9993
2 48621  65.9969 233.3426 0011596 265.7646  94.2097 13.83373868260513
2021-050D               
1 48843U 21050D   26196.84151552  .00001224  00000+0  54036-4 0  9990
2 48843  97.3329 272.2279 0006361 149.7102 210.4504 15.23594981283324
TYVAK-0173              
1 48892U 21059P   26196.62461528  .00000813  00000+0  10654-3 0  9996
2 48892  96.0074 265.9124 0007233 298.1600  61.8887 14.81972378272457
MANDRAKE 2 ABLE         
1 48907U 21059AE  26196.79986029  .00013821  00000+0  19955-3 0  9995
2 48907  97.7021  28.7901 0003831 231.8602 128.2307 15.56088334281579
MANDRAKE 2 BAKER        
1 48908U 21059AF  26196.83699376  .00019176  00000+0  22978-3 0  9995
2 48908  97.6985  31.9081 0002748 215.5627 144.5446 15.60993792281769
